[{"OBJECT_NAME":"GRACE-FO 1","OBJECT_ID":"2018-047A","EPOCH":"2026-03-09T22:18:06.984864","MEAN_MOTION":15.37445091,"ECCENTRICITY":0.00130905,"INCLINATION":88.9903,"RA_OF_ASC_NODE":211.5804,"ARG_OF_PERICENTER":129.4335,"MEAN_ANOMALY":230.8081,"EPHEMERIS_TYPE":0,"CLASSIFICATION_TYPE":"U","NORAD_CAT_ID":43476,"ELEMENT_SET_NO":999,"REV_AT_EPOCH":43454,"BSTAR":0.00017214877,"MEAN_MOTION_DOT":6.364e-5,"MEAN_MOTION_DDOT":0},{"OBJECT_NAME":"STARLINK-1664","OBJECT_ID":"2020-070X","EPOCH":"2026-03-09T11:15:39.464064","MEAN_MOTION":15.3852988,"ECCENTRICITY":0.00015941,"INCLINATION":53.0482,"RA_OF_ASC_NODE":133.9104,"ARG_OF_PERICENTER":307.9077,"MEAN_ANOMALY":52.1782,"EPHEMERIS_TYPE":0,"CLASSIFICATION_TYPE":"U","NORAD_CAT_ID":46553,"ELEMENT_SET_NO":999,"REV_AT_EPOCH":30008,"BSTAR":0.0021020114,"MEAN_MOTION_DOT":0.00081616,"MEAN_MOTION_DDOT":0}]
